NORAD_CAT_ID,OBJECT_NAME,OBJECT_TYPE,EPOCH,MEAN_MOTION,ECCENTRICITY,INCLINATION,RA_OF_ASC_NODE,ARG_OF_PERICENTER,MEAN_ANOMALY,BSTAR,MEAN_MOTION_DOT,MEAN_MOTION_DDOT,TLE_LINE0,TLE_LINE1,TLE_LINE2,SEMIMAJOR_AXIS,PERIOD,APOGEE,PERIGEE,DECAYED
52685.0,STARLINK-4029,PAYLOAD,2024-06-28 07:37:58,15.08843556,0.0001266,53.2164,44.5888,86.0219,274.0918,-8.4468e-06,-4.22e-06,0.0,0 STARLINK-4029,1 52685U 22053AF  24180.31803630 -.00000422  00000-0 -84468-5 0  9992,2 52685  53.2164  44.5888 0001266  86.0219 274.0918 15.08843556117619,6917.87,95.437,540.61,538.859,0.0
52685.0,STARLINK-4029,PAYLOAD,2024-06-28 21:56:25,15.08852974,0.0001108,53.2162,41.9103,79.0575,281.0542,0.00018495,2.658e-05,0.0,0 STARLINK-4029,1 52685U 22053AF  24180.91418842  .00002658  00000-0  18495-3 0  9991,2 52685  53.2162  41.9103 0001108  79.0575 281.0542 15.08852974117705,6917.841,95.437,540.472,538.939,0.0
52685.0,STARLINK-4029,PAYLOAD,2024-06-29 13:50:18,15.08835349,0.0001328,53.2168,38.94,80.6821,279.4322,4.1951e-05,3.8e-06,0.0,0 STARLINK-4029,1 52685U 22053AF  24181.57660557  .00000380  00000-0  41951-4 0  9990,2 52685  53.2168  38.9400 0001328  80.6821 279.4322 15.08835349117808,6917.895,95.438,540.678,538.841,0.0
52685.0,STARLINK-4029,PAYLOAD,2024-06-29 20:11:51,15.08834316,0.000123,53.2171,37.7489,82.2698,277.8433,3.3273e-05,2.42e-06,0.0,0 STARLINK-4029,1 52685U 22053AF  24181.84156745  .00000242  00000-0  33273-4 0  9994,2 52685  53.2171  37.7489 0001230  82.2698 277.8433 15.08834316117479,6917.898,95.438,540.614,538.912,0.0
52685.0,STARLINK-4029,PAYLOAD,2024-06-29 21:47:14,15.08835054,0.0001284,53.217,37.4512,79.226,280.8877,3.3028e-05,2.38e-06,0.0,0 STARLINK-4029,1 52685U 22053AF  24181.90780738  .00000238  00000-0  33028-4 0  9999,2 52685  53.2170  37.4512 0001284  79.2260 280.8877 15.08835054117850,6917.896,95.438,540.649,538.872,0.0
52685.0,STARLINK-4029,PAYLOAD,2024-06-30 02:33:23,15.088433,0.0001257,53.2173,36.5572,103.3568,256.7564,8.7904e-05,1.112e-05,0.0,0 STARLINK-4029,1 52685U 22053AF  24182.10651950  .00001112  00000-0  87904-4 0  9999,2 52685  53.2173  36.5572 0001257 103.3568 256.7564 15.08843300117510,6917.87,95.437,540.605,538.866,0.0
52685.0,STARLINK-4029,PAYLOAD,2024-06-30 07:19:33,15.08832249,0.000231,53.2166,35.6635,90.7507,269.375,-4.8312e-05,-1.057e-05,0.0,0 STARLINK-4029,1 52685U 22053AF  24182.30525417 -.00001057  00000-0 -48312-4 0  9999,2 52685  53.2166  35.6635 0002310  90.7507 269.3750 15.08832249117545,6917.904,95.438,541.367,538.171,0.0
52685.0,STARLINK-4029,PAYLOAD,2024-06-30 20:02:37,15.08852407,0.0001041,53.2169,33.2881,99.7503,260.3607,2.5777e-05,1.23e-06,0.0,0 STARLINK-4029,1 52685U 22053AF  24182.83515598  .00000123  00000-0  25777-4 0  9997,2 52685  53.2169  33.2881 0001041  99.7503 260.3607 15.08852407117629,6917.842,95.437,540.428,538.987,0.0
52685.0,STARLINK-4029,PAYLOAD,2024-06-30 21:38:00,15.08856204,0.0001126,53.2175,32.9901,96.6308,263.4812,6.7701e-05,7.9e-06,0.0,0 STARLINK-4029,1 52685U 22053AF  24182.90139252  .00000790  00000-0  67701-4 0  9997,2 52685  53.2175  32.9901 0001126  96.6308 263.4812 15.08856204118002,6917.831,95.437,540.475,538.917,0.0
52685.0,STARLINK-4029,PAYLOAD,2024-07-01 13:31:52,15.0883556,0.0001192,53.2164,30.0185,80.6342,279.4785,0.00014526,2.024e-05,0.0,0 STARLINK-4029,1 52685U 22053AF  24183.56380394  .00002024  00000-0  14526-3 0  9993,2 52685  53.2164  30.0185 0001192  80.6342 279.4785 15.08835560117734,6917.894,95.438,540.584,538.934,0.0
52685.0,STARLINK-4029,PAYLOAD,2024-07-01 21:28:48,15.08837408,0.000117,53.2177,28.5309,79.5116,280.6008,0.00010704,1.416e-05,0.0,0 STARLINK-4029,1 52685U 22053AF  24183.89500526  .00001416  00000-0  10704-3 0  9998,2 52685  53.2177  28.5309 0001170  79.5116 280.6008 15.08837408118152,6917.888,95.438,540.563,538.944,0.0
52685.0,STARLINK-4029,PAYLOAD,2024-07-02 07:01:07,15.08843016,0.0001214,53.2178,26.7473,81.0325,279.0804,7.1016e-05,8.43e-06,0.0,0 STARLINK-4029,1 52685U 22053AF  24184.29244260  .00000843  00000-0  71016-4 0  9990,2 52685  53.2178  26.7473 0001214  81.0325 279.0804 15.08843016118219,6917.871,95.437,540.576,538.896,0.0
52685.0,STARLINK-4029,PAYLOAD,2024-07-02 19:44:12,15.08841488,0.0001043,53.2173,24.3654,96.8851,263.226,3.331e-05,2.42e-06,0.0,0 STARLINK-4029,1 52685U 22053AF  24184.82236285  .00000242  00000-0  33310-4 0  9995,2 52685  53.2173  24.3654 0001043  96.8851 263.2260 15.08841488117926,6917.876,95.437,540.462,539.019,0.0
52685.0,STARLINK-4029,PAYLOAD,2024-07-03 19:34:59,15.08837109,0.0001134,53.2173,19.9085,83.7581,276.3541,7.2868e-05,8.72e-06,0.0,0 STARLINK-4029,1 52685U 22053AF  24185.81596464  .00000872  00000-0  72868-4 0  9993,2 52685  53.2173  19.9085 0001134  83.7581 276.3541 15.08837109118440,6917.889,95.438,540.539,538.97,0.0
52685.0,STARLINK-4029,PAYLOAD,2024-07-03 22:45:45,15.0884573,0.0001279,53.2182,19.3112,89.5901,270.5238,4.5029e-05,4.29e-06,0.0,0 STARLINK-4029,1 52685U 22053AF  24185.94843980  .00000429  00000-0  45029-4 0  9992,2 52685  53.2182  19.3112 0001279  89.5901 270.5238 15.08845730118094,6917.863,95.437,540.613,538.843,0.0
52685.0,STARLINK-4029,PAYLOAD,2024-07-04 13:04:14,15.08832687,0.0001146,53.2183,16.633,102.1922,257.9198,2.1663e-05,5.7e-07,0.0,0 STARLINK-4029,1 52685U 22053AF  24186.54460915  .00000057  00000-0  21663-4 0  9997,2 52685  53.2183  16.6330 0001146 102.1922 257.9198 15.08832687118186,6917.903,95.438,540.561,538.975,0.0
52685.0,STARLINK-4029,PAYLOAD,2024-07-04 19:25:46,15.0884037,0.0001191,53.2189,15.4474,99.483,260.6297,4.8337e-05,4.82e-06,0.0,0 STARLINK-4029,1 52685U 22053AF  24186.80956433  .00000482  00000-0  48337-4 0  9990,2 52685  53.2189  15.4474 0001191  99.4830 260.6297 15.08840370118228,6917.879,95.438,540.568,538.92,0.0
52685.0,STARLINK-4029,PAYLOAD,2024-07-05 19:16:33,15.08838724,0.0001119,53.2193,10.9901,88.7209,271.3911,0.00013766,1.904e-05,0.0,0 STARLINK-4029,1 52685U 22053AF  24187.80316531  .00001904  00000-0  13766-3 0  9997,2 52685  53.2193  10.9901 0001119  88.7209 271.3911 15.08838724118748,6917.884,95.438,540.523,538.975,0.0
52685.0,STARLINK-4029,PAYLOAD,2024-07-06 04:48:52,15.08845403,0.0001135,53.219,9.206,94.6131,265.4991,1.564e-05,-3.9e-07,0.0,0 STARLINK-4029,1 52685U 22053AF  24188.20060359 -.00000039  00000-0  15640-4 0  9999,2 52685  53.2190   9.2060 0001135  94.6131 265.4991 15.08845403118430,6917.864,95.437,540.514,538.944,0.0
52685.0,STARLINK-4029,PAYLOAD,2024-07-06 12:45:48,15.08834558,0.0001538,53.2201,7.7172,96.3681,263.7486,1.6275e-05,-2.9e-07,0.0,0 STARLINK-4029,1 52685U 22053AF  24188.53181233 -.00000029  00000-0  16275-4 0  9994,2 52685  53.2201   7.7172 0001538  96.3681 263.7486 15.08834558118480,6917.897,95.438,540.826,538.698,0.0
52685.0,STARLINK-4029,PAYLOAD,2024-07-06 19:07:21,15.08835367,0.0001369,53.2202,6.5291,101.5973,258.5173,2.5299e-05,1.15e-06,0.0,0 STARLINK-4029,1 52685U 22053AF  24188.79677188  .00000115  00000-0  25299-4 0  9992,2 52685  53.2202   6.5291 0001369 101.5973 258.5173 15.08835367118894,6917.895,95.438,540.707,538.812,0.0
52685.0,STARLINK-4029,PAYLOAD,2024-07-07 11:01:12,15.08840686,0.0001367,53.2203,3.5554,101.0096,259.105,2.0296e-05,3.5e-07,0.0,0 STARLINK-4029,1 52685U 22053AF  24189.45917087  .00000035  00000-0  20296-4 0  9994,2 52685  53.2203   3.5554 0001367 101.0096 259.1050 15.08840686118995,6917.878,95.438,540.689,538.798,0.0
52685.0,STARLINK-4029,PAYLOAD,2024-07-07 18:58:07,15.08846025,0.0001287,53.2199,2.0679,91.8164,268.2975,6.4973e-05,7.46e-06,0.0,0 STARLINK-4029,1 52685U 22053AF  24189.79036699  .00000746  00000-0  64973-4 0  9991,2 52685  53.2199   2.0679 0001287  91.8164 268.2975 15.08846025118679,6917.862,95.437,540.617,538.837,0.0
52685.0,STARLINK-4029,PAYLOAD,2024-07-08 10:51:59,15.08835658,0.0001398,53.2203,359.0944,83.4553,276.6598,0.00013835,1.914e-05,0.0,0 STARLINK-4029,1 52685U 22053AF  24190.45277199  .00001914  00000-0  13835-3 0  9996,2 52685  53.2203 359.0944 0001398  83.4553 276.6598 15.08835658118772,6917.894,95.438,540.726,538.792,0.0
52685.0,STARLINK-4029,PAYLOAD,2024-07-08 18:48:55,15.08838205,0.0001352,53.2198,357.6074,85.8945,274.2201,7.732e-05,9.43e-06,0.0,0 STARLINK-4029,1 52685U 22053AF  24190.78397266  .00000943  00000-0  77320-4 0  9991,2 52685  53.2198 357.6074 0001352  85.8945 274.2201 15.08838205119197,6917.886,95.438,540.686,538.816,0.0
52685.0,STARLINK-4029,PAYLOAD,2024-07-09 10:42:46,15.08838551,0.0001295,53.219,354.6327,75.0188,285.0948,-5.3532e-07,-2.96e-06,0.0,0 STARLINK-4029,1 52685U 22053AF  24191.44637583 -.00000296  00000-0 -53532-6 0  9998,2 52685  53.2190 354.6327 0001295  75.0188 285.0948 15.08838551119296,6917.885,95.438,540.646,538.854,0.0
52685.0,STARLINK-4029,PAYLOAD,2024-07-09 18:39:42,15.0884176,0.0001242,53.2193,353.1465,83.2143,276.899,4.7707e-05,4.72e-06,0.0,0 STARLINK-4029,1 52685U 22053AF  24191.77757187  .00000472  00000-0  47707-4 0  9996,2 52685  53.2193 353.1465 0001242  83.2143 276.8990 15.08841760118975,6917.875,95.437,540.599,538.881,0.0
52685.0,STARLINK-4029,PAYLOAD,2024-07-10 04:12:00,15.08843181,0.0001296,53.2183,351.362,77.6142,282.4995,2.8121e-05,1.6e-06,0.0,0 STARLINK-4029,1 52685U 22053AF  24192.17501136  .00000160  00000-0  28121-4 0  9995,2 52685  53.2183 351.3620 0001296  77.6142 282.4995 15.08843181119408,6917.871,95.437,540.632,538.839,0.0
52685.0,STARLINK-4029,PAYLOAD,2024-07-10 20:05:52,15.08844694,0.0001411,53.218,348.388,68.1652,291.949,7.1424e-05,8.49e-06,0.0,0 STARLINK-4029,1 52685U 22053AF  24192.83740954  .00000849  00000-0  71424-4 0  9999,2 52685  53.2180 348.3880 0001411  68.1652 291.9490 15.08844694119134,6917.866,95.437,540.707,538.755,0.0
52685.0,STARLINK-4029,PAYLOAD,2024-07-11 13:35:06,15.08838135,0.0001322,53.2173,345.1153,85.546,274.5683,0.00010805,1.432e-05,0.0,0 STARLINK-4029,1 52685U 22053AF  24193.56605211  .00001432  00000-0  10805-3 0  9990,2 52685  53.2173 345.1153 0001322  85.5460 274.5683 15.08838135119612,6917.886,95.438,540.666,538.837,0.0
